start=new Date('2021-09-25T00:00:00.000Z').valueOf();
sats=[{"MEAN_MOTION":"15.06398544","ELEMENT_SET_NO":"999","DECAY_DATE":null,"MEAN_ELEMENT_THEORY":"SGP4","OBJECT_NAME":"STARLINK-2214","MEAN_MOTION_DOT":"-0.00000217","LAUNCH_DATE":"2021-05-15","REF_FRAME":"TEME","RA_OF_ASC_NODE":"246.6976","OBJECT_TYPE":"PAYLOAD","CLASSIFICATION_TYPE":"U","ARG_OF_PERICENTER":"60.7871","APOAPSIS":"547.933","NORAD_CAT_ID":"48566","EPHEMERIS_TYPE":"0","FILE":"3126594","COUNTRY_CODE":"US","MEAN_ANOMALY":"299.3221","GP_ID":"185402972","BSTAR":"0.00000431640000","RCS_SIZE":"LARGE","SITE":"AFETR","TIME_SYSTEM":"UTC","MEAN_MOTION_DDOT":"0.0000000000000","INCLINATION":"53.0547","OBJECT_ID":"2021-041P","TLE_LINE2":"2 48566  53.0547 246.6976 0001033  60.7871 299.3221 15.06398544 20196","ECCENTRICITY":"0.00010330","SEMIMAJOR_AXIS":"6925.353","PERIAPSIS":"546.503","REV_AT_EPOCH":"2019","CENTER_NAME":"EARTH","EPOCH":"2021-09-24T10:09:14.400576","TLE_LINE1":"1 48566U 21041P   21267.42308334 -.00000217  00000-0  43164-5 0  9996","PERIOD":"95.592"},{"RA_OF_ASC_NODE":"245.7456","REF_FRAME":"TEME","LAUNCH_DATE":"2021-05-15","MEAN_MOTION_DOT":"-0.00000582","OBJECT_NAME":"STARLINK-2215","MEAN_ELEMENT_THEORY":"SGP4","ELEMENT_SET_NO":"999","DECAY_DATE":null,"MEAN_MOTION":"15.06393237","FILE":"3126800","COUNTRY_CODE":"US","MEAN_ANOMALY":"306.0000","NORAD_CAT_ID":"48567","EPHEMERIS_TYPE":"0","APOAPSIS":"548.121","ARG_OF_PERICENTER":"54.1108","CLASSIFICATION_TYPE":"U","OBJECT_TYPE":"PAYLOAD","SEMIMAJOR_AXIS":"6925.369","PERIAPSIS":"546.348","ECCENTRICITY":"0.00012800","TLE_LINE2":"2 48567  53.0539 245.7456 0001280  54.1108 306.0000 15.06393237 19828","OBJECT_ID":"2021-041Q","MEAN_MOTION_DDOT":"0.0000000000000","INCLINATION":"53.0539","RCS_SIZE":"LARGE","SITE":"AFETR","TIME_SYSTEM":"UTC","BSTAR":"-0.00002018100000","GP_ID":"185430550","PERIOD":"95.593","TLE_LINE1":"1 48567U 21041Q   21267.63413105 -.00000582  00000-0 -20181-4 0  9992","EPOCH":"2021-09-24T15:13:08.922720","CENTER_NAME":"EARTH","REV_AT_EPOCH":"1982"},{"REV_AT_EPOCH":"1999","CENTER_NAME":"EARTH","EPOCH":"2021-09-24T20:17:00.479616","TLE_LINE1":"1 48568U 21041R   21267.84514444  .00002069  00000-0  15768-3 0  9998","PERIOD":"95.592","TIME_SYSTEM":"UTC","SITE":"AFETR","RCS_SIZE":"LARGE","GP_ID":"185431302","BSTAR":"0.00015768000000","INCLINATION":"53.0490","MEAN_MOTION_DDOT":"0.0000000000000","OBJECT_ID":"2021-041R","TLE_LINE2":"2 48568  53.0490 234.8245 0000970  58.0967 302.0117 15.06409552 19992","SEMIMAJOR_AXIS":"6925.319","PERIAPSIS":"546.513","ECCENTRICITY":"0.00009700","ARG_OF_PERICENTER":"58.0967","CLASSIFICATION_TYPE":"U","OBJECT_TYPE":"PAYLOAD","APOAPSIS":"547.856","NORAD_CAT_ID":"48568","EPHEMERIS_TYPE":"0","FILE":"3126800","COUNTRY_CODE":"US","MEAN_ANOMALY":"302.0117","DECAY_DATE":null,"ELEMENT_SET_NO":"999","MEAN_ELEMENT_THEORY":"SGP4","MEAN_MOTION":"15.06409552","OBJECT_NAME":"STARLINK-2217","LAUNCH_DATE":"2021-05-15","MEAN_MOTION_DOT":"0.00002069","RA_OF_ASC_NODE":"234.8245","REF_FRAME":"TEME"},{"REV_AT_EPOCH":"1996","EPOCH":"2021-09-24T14:32:01.731840","CENTER_NAME":"EARTH","TLE_LINE1":"1 48569U 21041S   21267.60557560 -.00001278  00000-0 -66943-4 0  9994","PERIOD":"95.593","GP_ID":"185430656","BSTAR":"-0.00006694300000","SITE":"AFETR","RCS_SIZE":"LARGE","TIME_SYSTEM":"UTC","MEAN_MOTION_DDOT":"0.0000000000000","INCLINATION":"53.0559","OBJECT_ID":"2021-041S","TLE_LINE2":"2 48569  53.0559 235.8860 0001037  39.3435 320.7629 15.06388482 19960","ECCENTRICITY":"0.00010370","SEMIMAJOR_AXIS":"6925.384","PERIAPSIS":"546.531","OBJECT_TYPE":"PAYLOAD","CLASSIFICATION_TYPE":"U","ARG_OF_PERICENTER":"39.3435","APOAPSIS":"547.967","EPHEMERIS_TYPE":"0","NORAD_CAT_ID":"48569","MEAN_ANOMALY":"320.7629","FILE":"3126800","COUNTRY_CODE":"US","MEAN_MOTION":"15.06388482","ELEMENT_SET_NO":"999","DECAY_DATE":null,"MEAN_ELEMENT_THEORY":"SGP4","OBJECT_NAME":"STARLINK-2219","MEAN_MOTION_DOT":"-0.00001278","LAUNCH_DATE":"2021-05-15","REF_FRAME":"TEME","RA_OF_ASC_NODE":"235.8860"},{"ECCENTRICITY":"0.00013010","PERIAPSIS":"546.262","SEMIMAJOR_AXIS":"6925.298","TLE_LINE2":"2 48570  53.0523 245.9794 0001301  48.2591 256.3017 15.06416641 20211","OBJECT_ID":"2021-041T","INCLINATION":"53.0523","MEAN_MOTION_DDOT":"0.0000000000000","BSTAR":"-0.00241260000000","GP_ID":"185403002","SITE":"AFETR","TIME_SYSTEM":"UTC","RCS_SIZE":"LARGE","PERIOD":"95.591","TLE_LINE1":"1 48570U 21041T   21267.58334491 -.00036052  00000-0 -24126-2 0  9992","CENTER_NAME":"EARTH","EPOCH":"2021-09-24T14:00:01.000224","REV_AT_EPOCH":"2021","REF_FRAME":"TEME","RA_OF_ASC_NODE":"245.9794","MEAN_MOTION_DOT":"-0.00036052","LAUNCH_DATE":"2021-05-15","OBJECT_NAME":"STARLINK-2220","MEAN_MOTION":"15.06416641","MEAN_ELEMENT_THEORY":"SGP4","ELEMENT_SET_NO":"999","DECAY_DATE":null,"COUNTRY_CODE":"US","FILE":"3126593","MEAN_ANOMALY":"256.3017","NORAD_CAT_ID":"48570","EPHEMERIS_TYPE":"0","APOAPSIS":"548.064","OBJECT_TYPE":"PAYLOAD","CLASSIFICATION_TYPE":"U","ARG_OF_PERICENTER":"48.2591"},{"SEMIMAJOR_AXIS":"6925.336","PERIAPSIS":"546.384","ECCENTRICITY":"0.00011800","TLE_LINE2":"2 48571  53.0554 246.4954 0001180  55.0740 305.0359 15.06404197 20200","MEAN_MOTION_DDOT":"0.0000000000000","INCLINATION":"53.0554","OBJECT_ID":"2021-041U","SITE":"AFETR","TIME_SYSTEM":"UTC","RCS_SIZE":"LARGE","GP_ID":"185403005","BSTAR":"0.00001739700000","TLE_LINE1":"1 48571U 21041U   21267.46825665 -.00000022  00000-0  17397-4 0  9999","PERIOD":"95.592","EPOCH":"2021-09-24T11:14:17.374560","CENTER_NAME":"EARTH","REV_AT_EPOCH":"2020","RA_OF_ASC_NODE":"246.4954","REF_FRAME":"TEME","LAUNCH_DATE":"2021-05-15","MEAN_MOTION_DOT":"-0.00000022","OBJECT_NAME":"STARLINK-2221","DECAY_DATE":null,"ELEMENT_SET_NO":"999","MEAN_ELEMENT_THEORY":"SGP4","MEAN_MOTION":"15.06404197","FILE":"3126593","COUNTRY_CODE":"US","MEAN_ANOMALY":"305.0359","EPHEMERIS_TYPE":"0","NORAD_CAT_ID":"48571","APOAPSIS":"548.018","ARG_OF_PERICENTER":"55.0740","CLASSIFICATION_TYPE":"U","OBJECT_TYPE":"PAYLOAD"},{"OBJECT_ID":"2021-041V","INCLINATION":"53.0545","MEAN_MOTION_DDOT":"0.0000000000000","TIME_SYSTEM":"UTC","SITE":"AFETR","RCS_SIZE":"LARGE","BSTAR":"0.00001678900000","GP_ID":"185402983","SEMIMAJOR_AXIS":"6925.366","PERIAPSIS":"546.478","ECCENTRICITY":"0.00010870","TLE_LINE2":"2 48572  53.0545 246.5059 0001087  56.9756 303.1337 15.06394442 20207","REV_AT_EPOCH":"2020","PERIOD":"95.592","TLE_LINE1":"1 48572U 21041V   21267.46457408 -.00000031  00000-0  16789-4 0  9990","CENTER_NAME":"EARTH","EPOCH":"2021-09-24T11:08:59.200512","OBJECT_NAME":"STARLINK-2222","MEAN_ELEMENT_THEORY":"SGP4","DECAY_DATE":null,"ELEMENT_SET_NO":"999","MEAN_MOTION":"15.06394442","RA_OF_ASC_NODE":"246.5059","REF_FRAME":"TEME","LAUNCH_DATE":"2021-05-15","MEAN_MOTION_DOT":"-0.00000031","APOAPSIS":"547.983","ARG_OF_PERICENTER":"56.9756","OBJECT_TYPE":"PAYLOAD","CLASSIFICATION_TYPE":"U","FILE":"3126592","MEAN_ANOMALY":"303.1337","COUNTRY_CODE":"US","EPHEMERIS_TYPE":"0","NORAD_CAT_ID":"48572"},{"REV_AT_EPOCH":"1996","CENTER_NAME":"EARTH","EPOCH":"2021-09-24T15:25:05.169216","TLE_LINE1":"1 48573U 21041W   21267.64242094  .00000233  00000-0  34534-4 0  9995","PERIOD":"95.592","SITE":"AFETR","RCS_SIZE":"LARGE","TIME_SYSTEM":"UTC","GP_ID":"185430980","BSTAR":"0.00003453400000","MEAN_MOTION_DDOT":"0.0000000000000","INCLINATION":"53.0492","OBJECT_ID":"2021-041W","TLE_LINE2":"2 48573  53.0492 235.7274 0001039  48.2987 311.8090 15.06395014 19964","SEMIMAJOR_AXIS":"6925.364","PERIAPSIS":"546.509","ECCENTRICITY":"0.00010390","ARG_OF_PERICENTER":"48.2987","OBJECT_TYPE":"PAYLOAD","CLASSIFICATION_TYPE":"U","APOAPSIS":"547.948","EPHEMERIS_TYPE":"0","NORAD_CAT_ID":"48573","FILE":"3126800","MEAN_ANOMALY":"311.8090","COUNTRY_CODE":"US","ELEMENT_SET_NO":"999","DECAY_DATE":null,"MEAN_ELEMENT_THEORY":"SGP4","MEAN_MOTION":"15.06395014","OBJECT_NAME":"STARLINK-2224","LAUNCH_DATE":"2021-05-15","MEAN_MOTION_DOT":"0.00000233","RA_OF_ASC_NODE":"235.7274","REF_FRAME":"TEME"},{"EPOCH":"2021-09-25T00:00:02.000160","CENTER_NAME":"EARTH","PERIOD":"93.376","TLE_LINE1":"1 48574U 21041X   21268.00002315 -.00006194  00000-0 -13294-3 0  9990","REV_AT_EPOCH":"362","TLE_LINE2":"2 48574  53.0547 212.3735 0002360  31.0428 180.2592 15.42159995  3624","PERIAPSIS":"438.129","SEMIMAJOR_AXIS":"6817.873","ECCENTRICITY":"0.00023600","SITE":"AFETR","TIME_SYSTEM":"UTC","RCS_SIZE":"LARGE","BSTAR":"-0.00013294000000","GP_ID":"185430764","OBJECT_ID":"2021-041X","INCLINATION":"53.0547","MEAN_MOTION_DDOT":"0.0000000000000","EPHEMERIS_TYPE":"0","NORAD_CAT_ID":"48574","FILE":"3126800","MEAN_ANOMALY":"180.2592","COUNTRY_CODE":"US","ARG_OF_PERICENTER":"31.0428","CLASSIFICATION_TYPE":"U","OBJECT_TYPE":"PAYLOAD","APOAPSIS":"441.347","LAUNCH_DATE":"2021-05-15","MEAN_MOTION_DOT":"-0.00006194","RA_OF_ASC_NODE":"212.3735","REF_FRAME":"TEME","MEAN_ELEMENT_THEORY":"SGP4","DECAY_DATE":null,"ELEMENT_SET_NO":"999","MEAN_MOTION":"15.42159995","OBJECT_NAME":"STARLINK-2225"},{"MEAN_MOTION":"15.42170199","DECAY_DATE":null,"ELEMENT_SET_NO":"999","MEAN_ELEMENT_THEORY":"SGP4","OBJECT_NAME":"STARLINK-2227","MEAN_MOTION_DOT":"-0.00015643","LAUNCH_DATE":"2021-05-15","REF_FRAME":"TEME","RA_OF_ASC_NODE":"215.3843","OBJECT_TYPE":"PAYLOAD","CLASSIFICATION_TYPE":"U","ARG_OF_PERICENTER":"42.8731","APOAPSIS":"440.983","NORAD_CAT_ID":"48575","EPHEMERIS_TYPE":"0","MEAN_ANOMALY":"162.3441","FILE":"3126800","COUNTRY_CODE":"US","GP_ID":"185430551","BSTAR":"-0.00035057000000","RCS_SIZE":"LARGE","SITE":"AFETR","TIME_SYSTEM":"UTC","MEAN_MOTION_DDOT":"0.0000000000000","INCLINATION":"53.0586","OBJECT_ID":"2021-041Y","TLE_LINE2":"2 48575  53.0586 215.3843 0001870  42.8731 162.3441 15.42170199  3626","ECCENTRICITY":"0.00018700","PERIAPSIS":"438.433","SEMIMAJOR_AXIS":"6817.843","REV_AT_EPOCH":"362","EPOCH":"2021-09-25T00:00:02.000160","CENTER_NAME":"EARTH","TLE_LINE1":"1 48575U 21041Y   21268.00002315 -.00015643  00000-0 -35057-3 0  9991","PERIOD":"93.375"}];
